{"type":"FeatureCollection","features":[{"type":"Feature","properties":{"limite":"norte"},"geometry":{"type":"LineString","coordinates":[[-12,49.7949],[-11.9,49.6994],[-11.8,49.6066],[-11.7,49.5127],[-11.6,49.4204],[-11.5,49.3273],[-11.4,49.2358],[-11.3,49.1457],[-11.2,49.0555],[-11.1,48.967],[-11,48.8779],[-10.9,48.7903],[-10.8,48.7023],[-10.7,48.6154],[-10.6,48.53],[-10.5,48.4432],[-10.4,48.3581],[-10.3,48.273],[-10.2,48.1897],[-10.1,48.1062],[-10,48.0242],[-9.9,47.9417],[-9.8,47.8592],[-9.7,47.7791],[-9.6,47.6974],[-9.5,47.6175],[-9.4,47.538],[-9.3,47.4603],[-9.2,47.3809],[-9.1,47.3023],[-9,47.225],[-8.9,47.1486],[-8.8,47.0725],[-8.7,46.9971],[-8.6,46.921],[-8.5,46.8463],[-8.4,46.7721],[-8.3,46.6993],[-8.2,46.6243],[-8.1,46.5527],[-8,46.4804],[-7.9,46.4084],[-7.8,46.3368],[-7.7,46.2649],[-7.6,46.1944],[-7.5,46.1251],[-7.4,46.0551],[-7.3,45.9857],[-7.2,45.9165],[-7.1,45.8485],[-7,45.7818],[-6.9,45.7136],[-6.8,45.6468],[-6.7,45.5794],[-6.6,45.5151],[-6.5,45.4494],[-6.4,45.3828],[-6.3,45.3196],[-6.2,45.2546],[-6.1,45.1911],[-6,45.126],[-5.9,45.0632],[-5.8,44.9998],[-5.7,44.9381],[-5.6,44.8766],[-5.5,44.8148],[-5.4,44.753],[-5.3,44.6925],[-5.2,44.6324],[-5.1,44.5715],[-5,44.512],[-4.9,44.4544],[-4.8,44.3954],[-4.7,44.3363],[-4.6,44.2785],[-4.5,44.22],[-4.4,44.1638],[-4.3,44.1068],[-4.2,44.0501],[-4.1,43.9927],[-4,43.9376],[-3.9,43.8823],[-3.8,43.8268],[-3.7,43.7716],[-3.6,43.7167],[-3.5,43.6634],[-3.4,43.6099],[-3.3,43.5557],[-3.2,43.5032],[-3.1,43.4495],[-3,43.3965],[-2.9,43.3452],[-2.8,43.292],[-2.7,43.2411],[-2.6,43.1896],[-2.5,43.1392],[-2.4,43.0895],[-2.3,43.0385],[-2.2,42.9896],[-2.1,42.9401],[-2,42.8897],[-1.9,42.8415],[-1.8,42.7925],[-1.7,42.743],[-1.6,42.6965],[-1.5,42.6482],[-1.4,42.6014],[-1.3,42.5537],[-1.2,42.5072],[-1.1,42.46],[-1,42.4134],[-0.9,42.3674],[-0.8,42.3222],[-0.7,42.2765],[-0.6,42.2326],[-0.5,42.1869],[-0.4,42.1424],[-0.3,42.0981],[-0.2,42.0542],[-0.1,42.0112],[0,41.9668],[0.1,41.9252],[0.2,41.8819],[0.3,41.839],[0.4,41.797],[0.5,41.7541],[0.6,41.7135],[0.7,41.6714],[0.8,41.6302],[0.9,41.5893],[1,41.5492],[1.1,41.5084],[1.2,41.4689],[1.3,41.4287],[1.4,41.3888],[1.5,41.3497],[1.6,41.3107],[1.7,41.2711],[1.8,41.2333],[1.9,41.1938],[2,41.1552],[2.1,41.1188],[2.2,41.0808],[2.3,41.0429],[2.4,41.0059],[2.5,40.9693],[2.6,40.9319],[2.7,40.895],[2.8,40.8591],[2.9,40.8242],[3,40.7878],[3.1,40.7526],[3.2,40.7178],[3.3,40.6828],[3.4,40.6472],[3.5,40.6126],[3.6,40.5782],[3.7,40.545],[3.8,40.5109],[3.9,40.4778],[4,40.4432],[4.1,40.4114],[4.2,40.3787],[4.3,40.3452],[4.4,40.312],[4.5,40.2797],[4.6,40.2485],[4.7,40.2153],[4.8,40.1843],[4.9,40.1524],[5,40.1216],[5.1,40.0911],[5.2,40.0605],[5.3,40.0302],[5.4,39.9988],[5.5,39.9694],[5.6,39.9394],[5.7,39.9092],[5.8,39.88],[5.9,39.8513],[6,39.8217]]}},{"type":"Feature","properties":{"limite":"central"},"geometry":{"type":"LineString","coordinates":[[-12,47.3127],[-11.9,47.2316],[-11.8,47.1513],[-11.7,47.0708],[-11.6,46.9933],[-11.5,46.9116],[-11.4,46.8351],[-11.3,46.7548],[-11.2,46.6779],[-11.1,46.6025],[-11,46.5266],[-10.9,46.4484],[-10.8,46.3752],[-10.7,46.2995],[-10.6,46.2244],[-10.5,46.1492],[-10.4,46.0777],[-10.3,46.0041],[-10.2,45.9324],[-10.1,45.8582],[-10,45.7874],[-9.9,45.7146],[-9.8,45.6463],[-9.7,45.5744],[-9.6,45.5042],[-9.5,45.4325],[-9.4,45.3665],[-9.3,45.2989],[-9.2,45.2281],[-9.1,45.1606],[-9,45.092],[-8.9,45.0256],[-8.8,44.96],[-8.7,44.8917],[-8.6,44.8268],[-8.5,44.7604],[-8.4,44.6973],[-8.3,44.6321],[-8.2,44.5664],[-8.1,44.5038],[-8,44.4397],[-7.9,44.3778],[-7.8,44.3138],[-7.7,44.2529],[-7.6,44.1896],[-7.5,44.1293],[-7.4,44.0658],[-7.3,44.0064],[-7.2,43.9461],[-7.1,43.8853],[-7,43.8268],[-6.9,43.7679],[-6.8,43.7083],[-6.7,43.6499],[-6.6,43.59],[-6.5,43.5332],[-6.4,43.4739],[-6.3,43.4167],[-6.2,43.3611],[-6.1,43.3037],[-6,43.2468],[-5.9,43.1912],[-5.8,43.1373],[-5.7,43.0816],[-5.6,43.0257],[-5.5,42.9717],[-5.4,42.9171],[-5.3,42.8628],[-5.2,42.8098],[-5.1,42.7561],[-5,42.7044],[-4.9,42.6512],[-4.8,42.6],[-4.7,42.548],[-4.6,42.4954],[-4.5,42.445],[-4.4,42.3939],[-4.3,42.3431],[-4.2,42.2915],[-4.1,42.2404],[-4,42.1929],[-3.9,42.1432],[-3.8,42.0939],[-3.7,42.0448],[-3.6,41.9955],[-3.5,41.9478],[-3.4,41.8995],[-3.3,41.8528],[-3.2,41.803],[-3.1,41.7578],[-3,41.7104],[-2.9,41.667],[-2.8,41.6181],[-2.7,41.5724],[-2.6,41.5259],[-2.5,41.4801],[-2.4,41.4369],[-2.3,41.3919],[-2.2,41.3463],[-2.1,41.3018],[-2,41.2576],[-1.9,41.2144],[-1.8,41.1727],[-1.7,41.1261],[-1.6,41.0837],[-1.5,41.0409],[-1.4,41.001],[-1.3,40.9584],[-1.2,40.915],[-1.1,40.8743],[-1,40.8323],[-0.9,40.7909],[-0.8,40.7511],[-0.7,40.7092],[-0.6,40.6693],[-0.5,40.6288],[-0.4,40.5883],[-0.3,40.5503],[-0.2,40.5112],[-0.1,40.4707],[0,40.433],[0.1,40.3936],[0.2,40.3546],[0.3,40.3165],[0.4,40.2795],[0.5,40.2408],[0.6,40.2046],[0.7,40.1673],[0.8,40.1303],[0.9,40.0942],[1,40.0553],[1.1,40.0178],[1.2,39.9834],[1.3,39.9493],[1.4,39.9122],[1.5,39.8771],[1.6,39.8415],[1.7,39.8075],[1.8,39.7719],[1.9,39.7373],[2,39.7028],[2.1,39.6706],[2.2,39.6367],[2.3,39.6016],[2.4,39.5689],[2.5,39.5354],[2.6,39.5024],[2.7,39.4704],[2.8,39.4375],[2.9,39.4049],[3,39.3737],[3.1,39.3428],[3.2,39.3098],[3.3,39.2781],[3.4,39.2473],[3.5,39.2149],[3.6,39.1856],[3.7,39.1534],[3.8,39.1243],[3.9,39.0955],[4,39.0637],[4.1,39.033],[4.2,39.0054],[4.3,38.9761],[4.4,38.9457],[4.5,38.9164],[4.6,38.8872],[4.7,38.8582],[4.8,38.8302],[4.9,38.8032],[5,38.7747],[5.1,38.7461],[5.2,38.7197],[5.3,38.6921],[5.4,38.6647],[5.5,38.6386],[5.6,38.6104],[5.7,38.5851],[5.8,38.5564],[5.9,38.5307],[6,38.5048]]}},{"type":"Feature","properties":{"limite":"sur"},"geometry":{"type":"LineString","coordinates":[[-12,45.1738],[-11.9,45.1018],[-11.8,45.0324],[-11.7,44.9619],[-11.6,44.8911],[-11.5,44.8215],[-11.4,44.7534],[-11.3,44.6847],[-11.2,44.6161],[-11.1,44.547],[-11,44.4795],[-10.9,44.4133],[-10.8,44.3469],[-10.7,44.2795],[-10.6,44.2136],[-10.5,44.1483],[-10.4,44.0827],[-10.3,44.0171],[-10.2,43.9533],[-10.1,43.8894],[-10,43.825],[-9.9,43.762],[-9.8,43.699],[-9.7,43.6365],[-9.6,43.5744],[-9.5,43.512],[-9.4,43.4501],[-9.3,43.39],[-9.2,43.3282],[-9.1,43.2691],[-9,43.2094],[-8.9,43.1486],[-8.8,43.0901],[-8.7,43.0303],[-8.6,42.9718],[-8.5,42.9127],[-8.4,42.8541],[-8.3,42.7969],[-8.2,42.7395],[-8.1,42.6836],[-8,42.6268],[-7.9,42.5706],[-7.8,42.5145],[-7.7,42.4583],[-7.6,42.4033],[-7.5,42.3478],[-7.4,42.2933],[-7.3,42.2377],[-7.2,42.1841],[-7.1,42.1297],[-7,42.0767],[-6.9,42.0241],[-6.8,41.971],[-6.7,41.9173],[-6.6,41.8667],[-6.5,41.8147],[-6.4,41.7617],[-6.3,41.7102],[-6.2,41.6589],[-6.1,41.6091],[-6,41.5576],[-5.9,41.5085],[-5.8,41.4588],[-5.7,41.4088],[-5.6,41.359],[-5.5,41.3109],[-5.4,41.2628],[-5.3,41.214],[-5.2,41.1656],[-5.1,41.1184],[-5,41.0706],[-4.9,41.0227],[-4.8,40.9755],[-4.7,40.9281],[-4.6,40.882],[-4.5,40.8372],[-4.4,40.7907],[-4.3,40.7455],[-4.2,40.6986],[-4.1,40.6548],[-4,40.6095],[-3.9,40.5639],[-3.8,40.5202],[-3.7,40.4767],[-3.6,40.4335],[-3.5,40.388],[-3.4,40.3462],[-3.3,40.3018],[-3.2,40.2591],[-3.1,40.2171],[-3,40.1758],[-2.9,40.1323],[-2.8,40.0908],[-2.7,40.0497],[-2.6,40.0079],[-2.5,39.9673],[-2.4,39.9274],[-2.3,39.8861],[-2.2,39.847],[-2.1,39.8053],[-2,39.7667],[-1.9,39.7263],[-1.8,39.687],[-1.7,39.6492],[-1.6,39.6105],[-1.5,39.57],[-1.4,39.5331],[-1.3,39.4951],[-1.2,39.4564],[-1.1,39.419],[-1,39.3821],[-0.9,39.344],[-0.8,39.3065],[-0.7,39.2706],[-0.6,39.2346],[-0.5,39.1986],[-0.4,39.162],[-0.3,39.1254],[-0.2,39.0893],[-0.1,39.0542],[0,39.0195],[0.1,38.9838],[0.2,38.9502],[0.3,38.9151],[0.4,38.881],[0.5,38.8478],[0.6,38.8131],[0.7,38.7788],[0.8,38.7455],[0.9,38.7123],[1,38.6801],[1.1,38.6471],[1.2,38.6135],[1.3,38.581],[1.4,38.5489],[1.5,38.5176],[1.6,38.4865],[1.7,38.4547],[1.8,38.4227],[1.9,38.3911],[2,38.3603],[2.1,38.3297],[2.2,38.2995],[2.3,38.2695],[2.4,38.2384],[2.5,38.2076],[2.6,38.1779],[2.7,38.1489],[2.8,38.1188],[2.9,38.0899],[3,38.0612],[3.1,38.0319],[3.2,38.0029],[3.3,37.9758],[3.4,37.948],[3.5,37.9192],[3.6,37.8907],[3.7,37.8633],[3.8,37.8351],[3.9,37.8079],[4,37.7811],[4.1,37.7552],[4.2,37.7284],[4.3,37.7007],[4.4,37.6753],[4.5,37.6488],[4.6,37.6215],[4.7,37.5962],[4.8,37.571],[4.9,37.545],[5,37.52],[5.1,37.4954],[5.2,37.4707],[5.3,37.4443],[5.4,37.4207],[5.5,37.3952],[5.6,37.371],[5.7,37.3467],[5.8,37.3234],[5.9,37.3005],[6,37.2768]]}}]}