{"type":"FeatureCollection","features":[{"type":"Feature","properties":{"nivel":0.8},"geometry":{"type":"MultiPolygon","coordinates":[[[[5.1,45.05],[5.1,44.95],[5.1,44.85],[5.1,44.75],[5.1,44.65],[5.1,44.55],[5.1,44.45],[5.1,44.35],[5.1,44.25],[5.1,44.15],[5.1,44.05],[5.1,43.95],[5.1,43.85],[5.1,43.75],[5.1,43.65],[5.1,43.55],[5.1,43.45],[5.1,43.35],[5.1,43.25],[5.1,43.15],[5.1,43.05],[5.1,42.95],[5.1,42.85],[5.1,42.75],[5.1,42.65],[5.1,42.55],[5.1,42.45],[5.1,42.35],[5.1,42.25],[5.1,42.15],[5.1,42.05],[5.1,41.95],[5.1,41.85],[5.1,41.75],[5.1,41.65],[5.1,41.55],[5.1,41.45],[5.1,41.35],[5.1,41.25],[5.1,41.15],[5.1,41.05],[5.1,40.95],[5.1,40.85],[5.1,40.75],[5.1,40.65],[5.1,40.55],[5.1,40.45],[5.1,40.35],[5.1,40.25],[5.1,40.15],[5.1,40.05],[5.1,39.95],[5.1,39.85],[5.1,39.75],[5.1,39.65],[5.1,39.55],[5.1,39.45],[5.1,39.35],[5.1,39.25],[5.1,39.15],[5.1,39.05],[5.1,38.95],[5.1,38.85],[5.1,38.75],[5.1,38.65],[5.1,38.55],[5.1,38.45],[5.1,38.35],[5.1,38.25],[5.1,38.15],[5.1,38.05],[5.1,37.95],[5.1,37.85],[5.1,37.75],[5.1,37.65],[5.1,37.55],[5.1,37.45],[5.1,37.35],[5.1,37.25],[5.1,37.15],[5.1,37.05],[5.1,36.95],[5.1,36.85],[5.1,36.75],[5.1,36.65],[5.1,36.55],[5.1,36.45],[5.1,36.35],[5.1,36.25],[5.1,36.15],[5.1,36.05],[5.1,35.95],[5.1,35.85],[5.1,35.75],[5.1,35.65],[5.1,35.55],[5.1,35.45],[5.1,35.35],[5.1,35.25],[5.1,35.15],[5.1,35.05],[5.05,35],[4.95,35],[4.85,35],[4.75,35],[4.65,35],[4.55,35],[4.45,35],[4.35,35],[4.25,35],[4.15,35],[4.05,35],[3.95,35],[3.85,35],[3.75,35],[3.65,35],[3.55,35],[3.45,35],[3.35,35],[3.25,35],[3.15,35],[3.05,35],[2.95,35],[2.85,35],[2.75,35],[2.65,35],[2.55,35],[2.45,35],[2.35,35],[2.25,35],[2.15,35],[2.05,35],[1.95,35],[1.85,35],[1.75,35],[1.65,35],[1.55,35],[1.45,35],[1.35,35],[1.25,35],[1.15,35],[1.05,35],[0.95,35],[0.85,35],[0.75,35],[0.65,35],[0.55,35],[0.45,35],[0.35,35],[0.25,35],[0.15,35],[0.05,35],[-0.05,35],[-0.15,35],[-0.25,35],[-0.35,35],[-0.45,35],[-0.55,35],[-0.65,35],[-0.75,35],[-0.85,35],[-0.95,35],[-1.05,35],[-1.15,35],[-1.25,35],[-1.35,35],[-1.45,35],[-1.55,35],[-1.65,35],[-1.75,35],[-1.85,35],[-1.95,35],[-2.05,35],[-2.15,35],[-2.25,35],[-2.35,35],[-2.45,35],[-2.55,35],[-2.65,35],[-2.75,35],[-2.85,35],[-2.95,35],[-3.05,35],[-3.15,35],[-3.25,35],[-3.35,35],[-3.45,35],[-3.55,35],[-3.65,35],[-3.75,35],[-3.85,35],[-3.95,35],[-4.05,35],[-4.15,35],[-4.25,35],[-4.35,35],[-4.45,35],[-4.55,35],[-4.65,35],[-4.75,35],[-4.85,35],[-4.95,35],[-5.05,35],[-5.15,35],[-5.25,35],[-5.35,35],[-5.45,35],[-5.55,35],[-5.65,35],[-5.75,35],[-5.85,35],[-5.95,35],[-6.05,35],[-6.15,35],[-6.25,35],[-6.35,35],[-6.45,35],[-6.55,35],[-6.65,35],[-6.75,35],[-6.85,35],[-6.95,35],[-7.05,35],[-7.15,35],[-7.25,35],[-7.35,35],[-7.45,35],[-7.55,35],[-7.65,35],[-7.75,35],[-7.85,35],[-7.95,35],[-8.05,35],[-8.15,35],[-8.25,35],[-8.35,35],[-8.45,35],[-8.55,35],[-8.65,35],[-8.75,35],[-8.85,35],[-8.95,35],[-9.05,35],[-9.15,35],[-9.25,35],[-9.35,35],[-9.45,35],[-9.55,35],[-9.65,35],[-9.75,35],[-9.85,35],[-9.95,35],[-10,35.05],[-10,35.15],[-10,35.25],[-10,35.35],[-10,35.45],[-10,35.55],[-10,35.65],[-10,35.75],[-10,35.85],[-10,35.95],[-10,36.05],[-10,36.15],[-10,36.25],[-10,36.35],[-10,36.45],[-10,36.55],[-10,36.65],[-10,36.75],[-10,36.85],[-10,36.95],[-10,37.05],[-10,37.15],[-10,37.25],[-10,37.35],[-10,37.45],[-10,37.55],[-10,37.65],[-10,37.75],[-10,37.85],[-10,37.95],[-10,38.05],[-10,38.15],[-10,38.25],[-10,38.35],[-10,38.45],[-10,38.55],[-10,38.65],[-10,38.75],[-10,38.85],[-10,38.95],[-10,39.05],[-10,39.15],[-10,39.25],[-10,39.35],[-10,39.45],[-10,39.55],[-10,39.65],[-10,39.75],[-10,39.85],[-10,39.95],[-10,40.05],[-10,40.15],[-10,40.25],[-10,40.35],[-10,40.45],[-10,40.55],[-10,40.65],[-10,40.75],[-10,40.85],[-10,40.95],[-10,41.05],[-10,41.15],[-10,41.25],[-10,41.35],[-10,41.45],[-10,41.55],[-10,41.65],[-10,41.75],[-10,41.85],[-10,41.95],[-10,42.05],[-10,42.15],[-10,42.25],[-10,42.35],[-10,42.45],[-10,42.55],[-10,42.65],[-10,42.75],[-10,42.85],[-10,42.95],[-10,43.05],[-10,43.15],[-10,43.25],[-10,43.35],[-10,43.45],[-10,43.55],[-10,43.65],[-10,43.75],[-10,43.85],[-10,43.95],[-10,44.05],[-10,44.15],[-10,44.25],[-10,44.35],[-10,44.45],[-10,44.55],[-10,44.65],[-10,44.75],[-10,44.85],[-10,44.95],[-10,45.05],[-9.95,45.1],[-9.85,45.1],[-9.75,45.1],[-9.65,45.1],[-9.55,45.1],[-9.45,45.1],[-9.35,45.1],[-9.25,45.1],[-9.15,45.1],[-9.05,45.1],[-8.95,45.1],[-8.85,45.1],[-8.75,45.1],[-8.65,45.1],[-8.55,45.1],[-8.45,45.1],[-8.35,45.1],[-8.25,45.1],[-8.15,45.1],[-8.05,45.1],[-7.95,45.1],[-7.85,45.1],[-7.75,45.1],[-7.65,45.1],[-7.55,45.1],[-7.45,45.1],[-7.35,45.1],[-7.25,45.1],[-7.15,45.1],[-7.05,45.1],[-6.95,45.1],[-6.85,45.1],[-6.75,45.1],[-6.65,45.1],[-6.55,45.1],[-6.45,45.1],[-6.35,45.1],[-6.25,45.1],[-6.15,45.1],[-6.05,45.1],[-5.95,45.1],[-5.85,45.1],[-5.75,45.1],[-5.65,45.1],[-5.55,45.1],[-5.45,45.1],[-5.35,45.1],[-5.25,45.1],[-5.15,45.1],[-5.05,45.1],[-4.95,45.1],[-4.85,45.1],[-4.75,45.1],[-4.65,45.1],[-4.55,45.1],[-4.45,45.1],[-4.35,45.1],[-4.25,45.1],[-4.15,45.1],[-4.05,45.1],[-3.95,45.1],[-3.85,45.1],[-3.75,45.1],[-3.65,45.1],[-3.55,45.1],[-3.45,45.1],[-3.35,45.1],[-3.25,45.1],[-3.15,45.1],[-3.05,45.1],[-2.95,45.1],[-2.85,45.1],[-2.75,45.1],[-2.65,45.1],[-2.55,45.1],[-2.45,45.1],[-2.35,45.1],[-2.25,45.1],[-2.15,45.1],[-2.05,45.1],[-1.95,45.1],[-1.85,45.1],[-1.75,45.1],[-1.65,45.1],[-1.55,45.1],[-1.45,45.1],[-1.35,45.1],[-1.25,45.1],[-1.15,45.1],[-1.05,45.1],[-0.95,45.1],[-0.85,45.1],[-0.75,45.1],[-0.65,45.1],[-0.55,45.1],[-0.45,45.1],[-0.35,45.1],[-0.25,45.1],[-0.15,45.1],[-0.05,45.1],[0.05,45.1],[0.15,45.1],[0.25,45.1],[0.35,45.1],[0.45,45.1],[0.55,45.1],[0.65,45.1],[0.75,45.1],[0.85,45.1],[0.95,45.1],[1.05,45.1],[1.15,45.1],[1.25,45.1],[1.35,45.1],[1.45,45.1],[1.55,45.1],[1.65,45.1],[1.75,45.1],[1.85,45.1],[1.95,45.1],[2.05,45.1],[2.15,45.1],[2.25,45.1],[2.35,45.1],[2.45,45.1],[2.55,45.1],[2.65,45.1],[2.75,45.1],[2.85,45.1],[2.95,45.1],[3.05,45.1],[3.15,45.1],[3.25,45.1],[3.35,45.1],[3.45,45.1],[3.55,45.1],[3.65,45.1],[3.75,45.1],[3.85,45.1],[3.95,45.1],[4.05,45.1],[4.15,45.1],[4.25,45.1],[4.35,45.1],[4.45,45.1],[4.55,45.1],[4.65,45.1],[4.75,45.1],[4.85,45.1],[4.95,45.1],[5.05,45.1],[5.1,45.05]]]]}},{"type":"Feature","properties":{"nivel":0.9},"geometry":{"type":"MultiPolygon","coordinates":[[[[5.1,45.05],[5.1,44.95],[5.1,44.85],[5.1,44.75],[5.1,44.65],[5.1,44.55],[5.1,44.45],[5.1,44.35],[5.1,44.25],[5.1,44.15],[5.1,44.05],[5.1,43.95],[5.1,43.85],[5.1,43.75],[5.1,43.65],[5.1,43.55],[5.1,43.45],[5.1,43.35],[5.1,43.25],[5.1,43.15],[5.1,43.05],[5.1,42.95],[5.1,42.85],[5.1,42.75],[5.1,42.65],[5.1,42.55],[5.1,42.45],[5.1,42.35],[5.1,42.25],[5.1,42.15],[5.1,42.05],[5.1,41.95],[5.1,41.85],[5.1,41.75],[5.1,41.65],[5.1,41.55],[5.1,41.45],[5.1,41.35],[5.1,41.25],[5.1,41.15],[5.1,41.05],[5.1,40.95],[5.1,40.85],[5.1,40.75],[5.1,40.65],[5.1,40.55],[5.1,40.45],[5.1,40.35],[5.1,40.25],[5.1,40.15],[5.1,40.05],[5.1,39.95],[5.1,39.85],[5.1,39.75],[5.1,39.65],[5.1,39.55],[5.1,39.45],[5.1,39.35],[5.1,39.25],[5.1,39.15],[5.1,39.05],[5.1,38.95],[5.1,38.85],[5.1,38.75],[5.1,38.65],[5.1,38.55],[5.1,38.45],[5.1,38.35],[5.1,38.25],[5.1,38.15],[5.1,38.05],[5.1,37.95],[5.1,37.85],[5.1,37.75],[5.1,37.65],[5.1,37.55],[5.1,37.45],[5.1,37.35],[5.1,37.25],[5.1,37.15],[5.1,37.05],[5.1,36.95],[5.1,36.85],[5.1,36.75],[5.1,36.65],[5.1,36.55],[5.1,36.45],[5.1,36.35],[5.1,36.25],[5.1,36.15],[5.1,36.05],[5.1,35.95],[5.1,35.85],[5.1,35.75],[5.1,35.65],[5.1,35.55],[5.1,35.45],[5.1,35.35],[5.1,35.25],[5.1,35.15],[5.1,35.05],[5.05,35],[4.95,35],[4.85,35],[4.75,35],[4.65,35],[4.55,35],[4.45,35],[4.35,35],[4.25,35],[4.15,35],[4.05,35],[3.95,35],[3.85,35],[3.75,35],[3.65,35],[3.55,35],[3.45,35],[3.35,35],[3.25,35],[3.15,35],[3.05,35],[2.95,35],[2.85,35],[2.75,35],[2.65,35],[2.55,35],[2.45,35],[2.35,35],[2.25,35],[2.15,35],[2.05,35],[1.95,35],[1.85,35],[1.75,35],[1.65,35],[1.55,35],[1.45,35],[1.35,35],[1.25,35],[1.15,35],[1.05,35],[0.95,35],[0.85,35],[0.75,35],[0.65,35],[0.55,35],[0.45,35],[0.35,35],[0.25,35],[0.15,35],[0.05,35],[-0.05,35],[-0.15,35],[-0.25,35],[-0.35,35],[-0.45,35],[-0.55,35],[-0.65,35],[-0.75,35],[-0.85,35],[-0.95,35],[-1.05,35],[-1.15,35],[-1.25,35],[-1.35,35],[-1.45,35],[-1.55,35],[-1.65,35],[-1.75,35],[-1.85,35],[-1.95,35],[-2.05,35],[-2.15,35],[-2.25,35],[-2.35,35],[-2.45,35],[-2.55,35],[-2.65,35],[-2.75,35],[-2.85,35],[-2.95,35],[-3.05,35],[-3.15,35],[-3.25,35],[-3.35,35],[-3.45,35],[-3.55,35],[-3.65,35],[-3.75,35],[-3.85,35],[-3.95,35],[-4.05,35],[-4.15,35],[-4.25,35],[-4.35,35],[-4.45,35],[-4.55,35],[-4.65,35],[-4.75,35],[-4.85,35],[-4.95,35],[-5.05,35],[-5.15,35],[-5.25,35],[-5.35,35],[-5.45,35],[-5.55,35],[-5.65,35],[-5.75,35],[-5.85,35],[-5.95,35],[-6.05,35],[-6.15,35],[-6.25,35],[-6.35,35],[-6.45,35],[-6.55,35],[-6.65,35],[-6.75,35],[-6.791,35.05],[-6.85,35.073],[-6.95,35.112],[-7.045,35.15],[-7.05,35.152],[-7.15,35.192],[-7.25,35.232],[-7.296,35.25],[-7.35,35.272],[-7.45,35.312],[-7.543,35.35],[-7.55,35.353],[-7.65,35.394],[-7.75,35.435],[-7.787,35.45],[-7.85,35.476],[-7.95,35.518],[-8.028,35.55],[-8.05,35.559],[-8.15,35.601],[-8.25,35.643],[-8.266,35.65],[-8.35,35.686],[-8.45,35.728],[-8.5,35.75],[-8.55,35.771],[-8.65,35.814],[-8.732,35.85],[-8.75,35.858],[-8.85,35.901],[-8.95,35.945],[-8.962,35.95],[-9.05,35.989],[-9.15,36.033],[-9.188,36.05],[-9.25,36.078],[-9.35,36.122],[-9.412,36.15],[-9.45,36.167],[-9.55,36.212],[-9.633,36.25],[-9.65,36.258],[-9.75,36.303],[-9.85,36.349],[-9.852,36.35],[-9.95,36.395],[-10,36.45],[-10,36.55],[-10,36.65],[-10,36.75],[-10,36.85],[-10,36.95],[-10,37.05],[-10,37.15],[-10,37.25],[-10,37.35],[-10,37.45],[-10,37.55],[-10,37.65],[-10,37.75],[-10,37.85],[-10,37.95],[-10,38.05],[-10,38.15],[-10,38.25],[-10,38.35],[-10,38.45],[-10,38.55],[-10,38.65],[-10,38.75],[-10,38.85],[-10,38.95],[-10,39.05],[-10,39.15],[-10,39.25],[-10,39.35],[-10,39.45],[-10,39.55],[-10,39.65],[-10,39.75],[-10,39.85],[-10,39.95],[-10,40.05],[-10,40.15],[-10,40.25],[-10,40.35],[-10,40.45],[-10,40.55],[-10,40.65],[-10,40.75],[-10,40.85],[-10,40.95],[-10,41.05],[-10,41.15],[-10,41.25],[-10,41.35],[-10,41.45],[-10,41.55],[-10,41.65],[-10,41.75],[-10,41.85],[-10,41.95],[-10,42.05],[-10,42.15],[-10,42.25],[-10,42.35],[-10,42.45],[-10,42.55],[-10,42.65],[-10,42.75],[-10,42.85],[-10,42.95],[-10,43.05],[-10,43.15],[-10,43.25],[-10,43.35],[-10,43.45],[-10,43.55],[-10,43.65],[-10,43.75],[-10,43.85],[-10,43.95],[-10,44.05],[-10,44.15],[-10,44.25],[-10,44.35],[-10,44.45],[-10,44.55],[-10,44.65],[-10,44.75],[-10,44.85],[-10,44.95],[-10,45.05],[-9.95,45.1],[-9.85,45.1],[-9.75,45.1],[-9.65,45.1],[-9.55,45.1],[-9.45,45.1],[-9.35,45.1],[-9.25,45.1],[-9.15,45.1],[-9.05,45.1],[-8.95,45.1],[-8.85,45.1],[-8.75,45.1],[-8.65,45.1],[-8.55,45.1],[-8.45,45.1],[-8.35,45.1],[-8.25,45.1],[-8.15,45.1],[-8.05,45.1],[-7.95,45.1],[-7.85,45.1],[-7.75,45.1],[-7.65,45.1],[-7.55,45.1],[-7.45,45.1],[-7.35,45.1],[-7.25,45.1],[-7.15,45.1],[-7.05,45.1],[-6.95,45.1],[-6.85,45.1],[-6.75,45.1],[-6.65,45.1],[-6.55,45.1],[-6.45,45.1],[-6.35,45.1],[-6.25,45.1],[-6.15,45.1],[-6.05,45.1],[-5.95,45.1],[-5.85,45.1],[-5.75,45.1],[-5.65,45.1],[-5.55,45.1],[-5.45,45.1],[-5.35,45.1],[-5.25,45.1],[-5.15,45.1],[-5.05,45.1],[-4.95,45.1],[-4.85,45.1],[-4.75,45.1],[-4.65,45.1],[-4.55,45.1],[-4.45,45.1],[-4.35,45.1],[-4.25,45.1],[-4.15,45.1],[-4.05,45.1],[-3.95,45.1],[-3.85,45.1],[-3.75,45.1],[-3.65,45.1],[-3.55,45.1],[-3.45,45.1],[-3.35,45.1],[-3.25,45.1],[-3.15,45.1],[-3.05,45.1],[-2.95,45.1],[-2.85,45.1],[-2.75,45.1],[-2.65,45.1],[-2.55,45.1],[-2.45,45.1],[-2.35,45.1],[-2.25,45.1],[-2.15,45.1],[-2.05,45.1],[-1.95,45.1],[-1.85,45.1],[-1.75,45.1],[-1.65,45.1],[-1.55,45.1],[-1.45,45.1],[-1.35,45.1],[-1.25,45.1],[-1.15,45.1],[-1.05,45.1],[-0.95,45.1],[-0.85,45.1],[-0.75,45.1],[-0.65,45.1],[-0.55,45.1],[-0.45,45.1],[-0.35,45.1],[-0.25,45.1],[-0.15,45.1],[-0.05,45.1],[0.05,45.1],[0.15,45.1],[0.25,45.1],[0.35,45.1],[0.45,45.1],[0.55,45.1],[0.65,45.1],[0.75,45.1],[0.85,45.1],[0.95,45.1],[1.05,45.1],[1.15,45.1],[1.25,45.1],[1.35,45.1],[1.45,45.1],[1.55,45.1],[1.65,45.1],[1.75,45.1],[1.85,45.1],[1.95,45.1],[2.05,45.1],[2.15,45.1],[2.25,45.1],[2.35,45.1],[2.45,45.1],[2.55,45.1],[2.65,45.1],[2.75,45.1],[2.85,45.1],[2.95,45.1],[3.05,45.1],[3.15,45.1],[3.25,45.1],[3.35,45.1],[3.45,45.1],[3.55,45.1],[3.65,45.1],[3.75,45.1],[3.85,45.1],[3.95,45.1],[4.05,45.1],[4.15,45.1],[4.25,45.1],[4.35,45.1],[4.45,45.1],[4.55,45.1],[4.65,45.1],[4.75,45.1],[4.85,45.1],[4.95,45.1],[5.05,45.1],[5.1,45.05]]]]}},{"type":"Feature","properties":{"nivel":0.95},"geometry":{"type":"MultiPolygon","coordinates":[[[[4.009,45.05],[4.05,45.032],[4.15,44.989],[4.241,44.95],[4.25,44.946],[4.35,44.903],[4.45,44.861],[4.476,44.85],[4.55,44.819],[4.65,44.777],[4.715,44.75],[4.75,44.736],[4.85,44.694],[4.95,44.654],[4.959,44.65],[5.05,44.613],[5.1,44.55],[5.1,44.45],[5.1,44.35],[5.1,44.25],[5.1,44.15],[5.1,44.05],[5.1,43.95],[5.1,43.85],[5.1,43.75],[5.1,43.65],[5.1,43.55],[5.1,43.45],[5.1,43.35],[5.1,43.25],[5.1,43.15],[5.1,43.05],[5.1,42.95],[5.1,42.85],[5.1,42.75],[5.1,42.65],[5.1,42.55],[5.1,42.45],[5.1,42.35],[5.1,42.25],[5.1,42.15],[5.1,42.05],[5.1,41.95],[5.1,41.85],[5.1,41.75],[5.1,41.65],[5.1,41.55],[5.1,41.45],[5.1,41.35],[5.1,41.25],[5.1,41.15],[5.1,41.05],[5.1,40.95],[5.1,40.85],[5.1,40.75],[5.1,40.65],[5.1,40.55],[5.1,40.45],[5.1,40.35],[5.1,40.25],[5.1,40.15],[5.1,40.05],[5.1,39.95],[5.1,39.85],[5.1,39.75],[5.1,39.65],[5.1,39.55],[5.1,39.45],[5.1,39.35],[5.1,39.25],[5.1,39.15],[5.1,39.05],[5.1,38.95],[5.1,38.85],[5.1,38.75],[5.1,38.65],[5.1,38.55],[5.1,38.45],[5.1,38.35],[5.1,38.25],[5.1,38.15],[5.1,38.05],[5.1,37.95],[5.1,37.85],[5.1,37.75],[5.1,37.65],[5.1,37.55],[5.1,37.45],[5.1,37.35],[5.1,37.25],[5.1,37.15],[5.1,37.05],[5.1,36.95],[5.1,36.85],[5.1,36.75],[5.1,36.65],[5.1,36.55],[5.1,36.45],[5.1,36.35],[5.1,36.25],[5.1,36.15],[5.1,36.05],[5.1,35.95],[5.1,35.85],[5.1,35.75],[5.1,35.65],[5.1,35.55],[5.1,35.45],[5.1,35.35],[5.1,35.25],[5.1,35.15],[5.1,35.05],[5.05,35],[4.95,35],[4.85,35],[4.75,35],[4.65,35],[4.55,35],[4.45,35],[4.35,35],[4.25,35],[4.15,35],[4.05,35],[3.95,35],[3.85,35],[3.75,35],[3.65,35],[3.55,35],[3.45,35],[3.35,35],[3.25,35],[3.15,35],[3.05,35],[2.95,35],[2.85,35],[2.75,35],[2.65,35],[2.55,35],[2.45,35],[2.35,35],[2.25,35],[2.15,35],[2.05,35],[1.95,35],[1.871,35.05],[1.85,35.056],[1.75,35.082],[1.65,35.109],[1.55,35.136],[1.498,35.15],[1.45,35.163],[1.35,35.19],[1.25,35.218],[1.15,35.245],[1.133,35.25],[1.05,35.273],[0.95,35.301],[0.85,35.329],[0.777,35.35],[0.75,35.358],[0.65,35.386],[0.55,35.415],[0.45,35.444],[0.428,35.45],[0.35,35.473],[0.25,35.502],[0.15,35.531],[0.086,35.55],[0.05,35.561],[-0.05,35.591],[-0.15,35.621],[-0.248,35.65],[-0.25,35.651],[-0.35,35.681],[-0.45,35.711],[-0.55,35.742],[-0.576,35.75],[-0.65,35.773],[-0.75,35.804],[-0.85,35.835],[-0.897,35.85],[-0.95,35.867],[-1.05,35.898],[-1.15,35.93],[-1.212,35.95],[-1.25,35.962],[-1.35,35.994],[-1.45,36.027],[-1.521,36.05],[-1.55,36.059],[-1.65,36.092],[-1.75,36.125],[-1.825,36.15],[-1.85,36.158],[-1.95,36.192],[-2.05,36.225],[-2.123,36.25],[-2.15,36.259],[-2.25,36.293],[-2.35,36.327],[-2.416,36.35],[-2.45,36.362],[-2.55,36.396],[-2.65,36.431],[-2.705,36.45],[-2.75,36.466],[-2.85,36.501],[-2.95,36.536],[-2.988,36.55],[-3.05,36.572],[-3.15,36.608],[-3.25,36.644],[-3.267,36.65],[-3.35,36.68],[-3.45,36.717],[-3.541,36.75],[-3.55,36.753],[-3.65,36.79],[-3.75,36.827],[-3.812,36.85],[-3.85,36.864],[-3.95,36.902],[-4.05,36.94],[-4.078,36.95],[-4.15,36.977],[-4.25,37.016],[-4.34,37.05],[-4.35,37.054],[-4.45,37.093],[-4.55,37.131],[-4.598,37.15],[-4.65,37.17],[-4.75,37.21],[-4.85,37.249],[-4.853,37.25],[-4.95,37.289],[-5.05,37.329],[-5.103,37.35],[-5.15,37.369],[-5.25,37.409],[-5.35,37.45],[-5.351,37.45],[-5.45,37.491],[-5.55,37.532],[-5.595,37.55],[-5.65,37.573],[-5.75,37.614],[-5.836,37.65],[-5.85,37.656],[-5.95,37.698],[-6.05,37.74],[-6.073,37.75],[-6.15,37.783],[-6.25,37.825],[-6.308,37.85],[-6.35,37.868],[-6.45,37.911],[-6.539,37.95],[-6.55,37.955],[-6.65,37.998],[-6.75,38.042],[-6.768,38.05],[-6.85,38.086],[-6.95,38.131],[-6.993,38.15],[-7.05,38.175],[-7.15,38.22],[-7.216,38.25],[-7.25,38.265],[-7.35,38.311],[-7.436,38.35],[-7.45,38.356],[-7.55,38.402],[-7.65,38.448],[-7.654,38.45],[-7.75,38.495],[-7.85,38.541],[-7.869,38.55],[-7.95,38.588],[-8.05,38.635],[-8.081,38.65],[-8.15,38.683],[-8.25,38.73],[-8.291,38.75],[-8.35,38.778],[-8.45,38.826],[-8.499,38.85],[-8.55,38.875],[-8.65,38.923],[-8.704,38.95],[-8.75,38.972],[-8.85,39.022],[-8.908,39.05],[-8.95,39.071],[-9.05,39.121],[-9.108,39.15],[-9.15,39.171],[-9.25,39.221],[-9.307,39.25],[-9.35,39.272],[-9.45,39.323],[-9.504,39.35],[-9.55,39.374],[-9.65,39.425],[-9.698,39.45],[-9.75,39.477],[-9.85,39.529],[-9.891,39.55],[-9.95,39.581],[-10,39.65],[-10,39.75],[-10,39.85],[-10,39.95],[-10,40.05],[-10,40.15],[-10,40.25],[-10,40.35],[-10,40.45],[-10,40.55],[-10,40.65],[-10,40.75],[-10,40.85],[-10,40.95],[-10,41.05],[-10,41.15],[-10,41.25],[-10,41.35],[-10,41.45],[-10,41.55],[-10,41.65],[-10,41.75],[-10,41.85],[-10,41.95],[-10,42.05],[-10,42.15],[-10,42.25],[-10,42.35],[-10,42.45],[-10,42.55],[-10,42.65],[-10,42.75],[-10,42.85],[-10,42.95],[-10,43.05],[-10,43.15],[-10,43.25],[-10,43.35],[-10,43.45],[-10,43.55],[-10,43.65],[-10,43.75],[-10,43.85],[-10,43.95],[-10,44.05],[-10,44.15],[-10,44.25],[-10,44.35],[-10,44.45],[-10,44.55],[-10,44.65],[-10,44.75],[-10,44.85],[-10,44.95],[-10,45.05],[-9.95,45.1],[-9.85,45.1],[-9.75,45.1],[-9.65,45.1],[-9.55,45.1],[-9.45,45.1],[-9.35,45.1],[-9.25,45.1],[-9.15,45.1],[-9.05,45.1],[-8.95,45.1],[-8.85,45.1],[-8.75,45.1],[-8.65,45.1],[-8.55,45.1],[-8.45,45.1],[-8.35,45.1],[-8.25,45.1],[-8.15,45.1],[-8.05,45.1],[-7.95,45.1],[-7.85,45.1],[-7.75,45.1],[-7.65,45.1],[-7.55,45.1],[-7.45,45.1],[-7.35,45.1],[-7.25,45.1],[-7.15,45.1],[-7.05,45.1],[-6.95,45.1],[-6.85,45.1],[-6.75,45.1],[-6.65,45.1],[-6.55,45.1],[-6.45,45.1],[-6.35,45.1],[-6.25,45.1],[-6.15,45.1],[-6.05,45.1],[-5.95,45.1],[-5.85,45.1],[-5.75,45.1],[-5.65,45.1],[-5.55,45.1],[-5.45,45.1],[-5.35,45.1],[-5.25,45.1],[-5.15,45.1],[-5.05,45.1],[-4.95,45.1],[-4.85,45.1],[-4.75,45.1],[-4.65,45.1],[-4.55,45.1],[-4.45,45.1],[-4.35,45.1],[-4.25,45.1],[-4.15,45.1],[-4.05,45.1],[-3.95,45.1],[-3.85,45.1],[-3.75,45.1],[-3.65,45.1],[-3.55,45.1],[-3.45,45.1],[-3.35,45.1],[-3.25,45.1],[-3.15,45.1],[-3.05,45.1],[-2.95,45.1],[-2.85,45.1],[-2.75,45.1],[-2.65,45.1],[-2.55,45.1],[-2.45,45.1],[-2.35,45.1],[-2.25,45.1],[-2.15,45.1],[-2.05,45.1],[-1.95,45.1],[-1.85,45.1],[-1.75,45.1],[-1.65,45.1],[-1.55,45.1],[-1.45,45.1],[-1.35,45.1],[-1.25,45.1],[-1.15,45.1],[-1.05,45.1],[-0.95,45.1],[-0.85,45.1],[-0.75,45.1],[-0.65,45.1],[-0.55,45.1],[-0.45,45.1],[-0.35,45.1],[-0.25,45.1],[-0.15,45.1],[-0.05,45.1],[0.05,45.1],[0.15,45.1],[0.25,45.1],[0.35,45.1],[0.45,45.1],[0.55,45.1],[0.65,45.1],[0.75,45.1],[0.85,45.1],[0.95,45.1],[1.05,45.1],[1.15,45.1],[1.25,45.1],[1.35,45.1],[1.45,45.1],[1.55,45.1],[1.65,45.1],[1.75,45.1],[1.85,45.1],[1.95,45.1],[2.05,45.1],[2.15,45.1],[2.25,45.1],[2.35,45.1],[2.45,45.1],[2.55,45.1],[2.65,45.1],[2.75,45.1],[2.85,45.1],[2.95,45.1],[3.05,45.1],[3.15,45.1],[3.25,45.1],[3.35,45.1],[3.45,45.1],[3.55,45.1],[3.65,45.1],[3.75,45.1],[3.85,45.1],[3.95,45.1],[4.009,45.05]]]]}},{"type":"Feature","properties":{"nivel":0.99},"geometry":{"type":"MultiPolygon","coordinates":[[[[-3.507,45.05],[-3.45,45.016],[-3.35,44.959],[-3.335,44.95],[-3.25,44.901],[-3.161,44.85],[-3.15,44.844],[-3.05,44.787],[-2.985,44.75],[-2.95,44.73],[-2.85,44.674],[-2.806,44.65],[-2.75,44.619],[-2.65,44.563],[-2.626,44.55],[-2.55,44.508],[-2.45,44.454],[-2.443,44.45],[-2.35,44.399],[-2.259,44.35],[-2.25,44.345],[-2.15,44.292],[-2.072,44.25],[-2.05,44.239],[-1.95,44.186],[-1.882,44.15],[-1.85,44.133],[-1.75,44.081],[-1.69,44.05],[-1.65,44.029],[-1.55,43.977],[-1.496,43.95],[-1.45,43.926],[-1.35,43.875],[-1.3,43.85],[-1.25,43.825],[-1.15,43.775],[-1.1,43.75],[-1.05,43.725],[-0.95,43.675],[-0.898,43.65],[-0.85,43.626],[-0.75,43.577],[-0.694,43.55],[-0.65,43.529],[-0.55,43.48],[-0.486,43.45],[-0.45,43.433],[-0.35,43.385],[-0.276,43.35],[-0.25,43.338],[-0.15,43.291],[-0.063,43.25],[-0.05,43.244],[0.05,43.197],[0.15,43.151],[0.153,43.15],[0.25,43.106],[0.35,43.06],[0.372,43.05],[0.45,43.015],[0.55,42.97],[0.595,42.95],[0.65,42.925],[0.75,42.881],[0.821,42.85],[0.85,42.837],[0.95,42.793],[1.05,42.75],[1.05,42.75],[1.15,42.707],[1.25,42.664],[1.282,42.65],[1.35,42.621],[1.45,42.579],[1.519,42.55],[1.55,42.537],[1.65,42.495],[1.75,42.454],[1.759,42.45],[1.85,42.412],[1.95,42.371],[2.003,42.35],[2.05,42.331],[2.15,42.29],[2.25,42.25],[2.251,42.25],[2.35,42.21],[2.45,42.171],[2.503,42.15],[2.55,42.131],[2.65,42.092],[2.75,42.054],[2.759,42.05],[2.85,42.015],[2.95,41.977],[3.02,41.95],[3.05,41.939],[3.15,41.901],[3.25,41.863],[3.286,41.85],[3.35,41.826],[3.45,41.789],[3.55,41.752],[3.556,41.75],[3.65,41.716],[3.75,41.679],[3.831,41.65],[3.85,41.643],[3.95,41.607],[4.05,41.572],[4.112,41.55],[4.15,41.537],[4.25,41.501],[4.35,41.467],[4.398,41.45],[4.45,41.432],[4.55,41.398],[4.65,41.364],[4.69,41.35],[4.75,41.33],[4.85,41.296],[4.95,41.263],[4.988,41.25],[5.05,41.229],[5.1,41.15],[5.1,41.05],[5.1,40.95],[5.1,40.85],[5.1,40.75],[5.1,40.65],[5.1,40.55],[5.1,40.45],[5.1,40.35],[5.1,40.25],[5.1,40.15],[5.1,40.05],[5.1,39.95],[5.1,39.85],[5.1,39.75],[5.1,39.65],[5.1,39.55],[5.1,39.45],[5.1,39.35],[5.1,39.25],[5.1,39.15],[5.1,39.05],[5.1,38.95],[5.1,38.85],[5.1,38.75],[5.1,38.65],[5.1,38.55],[5.1,38.45],[5.1,38.35],[5.1,38.25],[5.1,38.15],[5.1,38.05],[5.1,37.95],[5.1,37.85],[5.1,37.75],[5.1,37.65],[5.1,37.55],[5.1,37.45],[5.1,37.35],[5.1,37.25],[5.1,37.15],[5.1,37.05],[5.1,36.95],[5.1,36.85],[5.1,36.75],[5.05,36.683],[4.95,36.707],[4.85,36.731],[4.771,36.75],[4.75,36.755],[4.65,36.78],[4.55,36.805],[4.45,36.83],[4.368,36.85],[4.35,36.855],[4.25,36.88],[4.15,36.906],[4.05,36.931],[3.976,36.95],[3.95,36.957],[3.85,36.983],[3.75,37.009],[3.65,37.035],[3.595,37.05],[3.55,37.062],[3.45,37.089],[3.35,37.116],[3.25,37.143],[3.223,37.15],[3.15,37.17],[3.05,37.198],[2.95,37.225],[2.86,37.25],[2.85,37.253],[2.75,37.281],[2.65,37.309],[2.55,37.337],[2.505,37.35],[2.45,37.366],[2.35,37.395],[2.25,37.424],[2.159,37.45],[2.15,37.453],[2.05,37.482],[1.95,37.512],[1.85,37.541],[1.82,37.55],[1.75,37.571],[1.65,37.601],[1.55,37.631],[1.489,37.65],[1.45,37.662],[1.35,37.693],[1.25,37.724],[1.164,37.75],[1.15,37.754],[1.05,37.786],[0.95,37.817],[0.85,37.849],[0.846,37.85],[0.75,37.881],[0.65,37.913],[0.55,37.945],[0.534,37.95],[0.45,37.978],[0.35,38.01],[0.25,38.043],[0.228,38.05],[0.15,38.076],[0.05,38.109],[-0.05,38.143],[-0.072,38.15],[-0.15,38.177],[-0.25,38.21],[-0.35,38.244],[-0.367,38.25],[-0.45,38.279],[-0.55,38.314],[-0.65,38.348],[-0.656,38.35],[-0.75,38.383],[-0.85,38.418],[-0.94,38.45],[-0.95,38.453],[-1.05,38.489],[-1.15,38.525],[-1.22,38.55],[-1.25,38.561],[-1.35,38.597],[-1.45,38.634],[-1.495,38.65],[-1.55,38.67],[-1.65,38.708],[-1.75,38.744],[-1.765,38.75],[-1.85,38.782],[-1.95,38.82],[-2.031,38.85],[-2.05,38.857],[-2.15,38.895],[-2.25,38.934],[-2.293,38.95],[-2.35,38.972],[-2.45,39.011],[-2.55,39.05],[-2.551,39.05],[-2.65,39.089],[-2.75,39.129],[-2.805,39.15],[-2.85,39.168],[-2.95,39.208],[-3.05,39.248],[-3.055,39.25],[-3.15,39.289],[-3.25,39.329],[-3.301,39.35],[-3.35,39.37],[-3.45,39.411],[-3.544,39.45],[-3.55,39.452],[-3.65,39.494],[-3.75,39.536],[-3.784,39.55],[-3.85,39.578],[-3.95,39.62],[-4.02,39.65],[-4.05,39.663],[-4.15,39.706],[-4.25,39.749],[-4.253,39.75],[-4.35,39.792],[-4.45,39.836],[-4.483,39.85],[-4.55,39.88],[-4.65,39.924],[-4.709,39.95],[-4.75,39.968],[-4.85,40.013],[-4.933,40.05],[-4.95,40.057],[-5.05,40.103],[-5.15,40.148],[-5.154,40.15],[-5.25,40.194],[-5.35,40.24],[-5.373,40.25],[-5.45,40.286],[-5.55,40.332],[-5.588,40.35],[-5.65,40.379],[-5.75,40.426],[-5.801,40.45],[-5.85,40.473],[-5.95,40.521],[-6.011,40.55],[-6.05,40.569],[-6.15,40.617],[-6.219,40.65],[-6.25,40.665],[-6.35,40.714],[-6.424,40.75],[-6.45,40.763],[-6.55,40.812],[-6.627,40.85],[-6.65,40.861],[-6.75,40.911],[-6.828,40.95],[-6.85,40.961],[-6.95,41.012],[-7.026,41.05],[-7.05,41.062],[-7.15,41.113],[-7.222,41.15],[-7.25,41.165],[-7.35,41.216],[-7.416,41.25],[-7.45,41.268],[-7.55,41.32],[-7.607,41.35],[-7.65,41.373],[-7.75,41.425],[-7.797,41.45],[-7.85,41.478],[-7.95,41.532],[-7.985,41.55],[-8.05,41.585],[-8.15,41.639],[-8.17,41.65],[-8.25,41.693],[-8.35,41.748],[-8.354,41.75],[-8.45,41.803],[-8.536,41.85],[-8.55,41.858],[-8.65,41.914],[-8.716,41.95],[-8.75,41.969],[-8.85,42.025],[-8.894,42.05],[-8.95,42.082],[-9.05,42.138],[-9.07,42.15],[-9.15,42.196],[-9.245,42.25],[-9.25,42.253],[-9.35,42.311],[-9.418,42.35],[-9.45,42.369],[-9.55,42.427],[-9.589,42.45],[-9.65,42.486],[-9.75,42.545],[-9.759,42.55],[-9.85,42.605],[-9.926,42.65],[-9.95,42.664],[-10,42.75],[-10,42.85],[-10,42.95],[-10,43.05],[-10,43.15],[-10,43.25],[-10,43.35],[-10,43.45],[-10,43.55],[-10,43.65],[-10,43.75],[-10,43.85],[-10,43.95],[-10,44.05],[-10,44.15],[-10,44.25],[-10,44.35],[-10,44.45],[-10,44.55],[-10,44.65],[-10,44.75],[-10,44.85],[-10,44.95],[-10,45.05],[-9.95,45.1],[-9.85,45.1],[-9.75,45.1],[-9.65,45.1],[-9.55,45.1],[-9.45,45.1],[-9.35,45.1],[-9.25,45.1],[-9.15,45.1],[-9.05,45.1],[-8.95,45.1],[-8.85,45.1],[-8.75,45.1],[-8.65,45.1],[-8.55,45.1],[-8.45,45.1],[-8.35,45.1],[-8.25,45.1],[-8.15,45.1],[-8.05,45.1],[-7.95,45.1],[-7.85,45.1],[-7.75,45.1],[-7.65,45.1],[-7.55,45.1],[-7.45,45.1],[-7.35,45.1],[-7.25,45.1],[-7.15,45.1],[-7.05,45.1],[-6.95,45.1],[-6.85,45.1],[-6.75,45.1],[-6.65,45.1],[-6.55,45.1],[-6.45,45.1],[-6.35,45.1],[-6.25,45.1],[-6.15,45.1],[-6.05,45.1],[-5.95,45.1],[-5.85,45.1],[-5.75,45.1],[-5.65,45.1],[-5.55,45.1],[-5.45,45.1],[-5.35,45.1],[-5.25,45.1],[-5.15,45.1],[-5.05,45.1],[-4.95,45.1],[-4.85,45.1],[-4.75,45.1],[-4.65,45.1],[-4.55,45.1],[-4.45,45.1],[-4.35,45.1],[-4.25,45.1],[-4.15,45.1],[-4.05,45.1],[-3.95,45.1],[-3.85,45.1],[-3.75,45.1],[-3.65,45.1],[-3.55,45.1],[-3.507,45.05]]]]}}]}